[{"OBJECT_NAME":"OBJECT B","OBJECT_ID":"2021-091B","EPOCH":"2026-03-09T22:30:24.924672","MEAN_MOTION":15.17988278,"ECCENTRICITY":0.00142689,"INCLINATION":97.448,"RA_OF_ASC_NODE":258.0458,"ARG_OF_PERICENTER":31.6297,"MEAN_ANOMALY":328.5792,"EPHEMERIS_TYPE":0,"CLASSIFICATION_TYPE":"U","NORAD_CAT_ID":49316,"ELEMENT_SET_NO":999,"REV_AT_EPOCH":24392,"BSTAR":0.00037182994,"MEAN_MOTION_DOT":7.511e-5,"MEAN_MOTION_DDOT":0},{"OBJECT_NAME":"CZ-4C R\/B","OBJECT_ID":"2013-037D","EPOCH":"2026-03-09T18:06:56.075616","MEAN_MOTION":15.35625196,"ECCENTRICITY":0.00667653,"INCLINATION":97.9623,"RA_OF_ASC_NODE":344.221,"ARG_OF_PERICENTER":268.5523,"MEAN_ANOMALY":90.807,"EPHEMERIS_TYPE":0,"CLASSIFICATION_TYPE":"U","NORAD_CAT_ID":39211,"ELEMENT_SET_NO":999,"REV_AT_EPOCH":69561,"BSTAR":0.000391022,"MEAN_MOTION_DOT":0.00014492,"MEAN_MOTION_DDOT":0}]
